{"fetched_at":"2026-07-06T18:35:16.154Z","source":"https://celestrak.org/NORAD/elements/gp.php?GROUP=planet&FORMAT=JSON","constellation":"pelican","records":[{"OBJECT_NAME":"PELICAN-1","OBJECT_ID":"2023-174AS","EPOCH":"2026-07-05T19:51:25.153344","CLASSIFICATION_TYPE":"U","MEAN_MOTION":15.72730609,"ECCENTRICITY":0.00015981,"INCLINATION":97.3994,"RA_OF_ASC_NODE":288.337,"ARG_OF_PERICENTER":147.4668,"MEAN_ANOMALY":212.6694,"EPHEMERIS_TYPE":0,"NORAD_CAT_ID":58296,"ELEMENT_SET_NO":999,"REV_AT_EPOCH":14909,"BSTAR":0.000090725219,"MEAN_MOTION_DOT":0.0001207,"MEAN_MOTION_DDOT":0},{"OBJECT_NAME":"PELICAN-2","OBJECT_ID":"2025-009Y","EPOCH":"2026-07-06T04:56:06.278208","CLASSIFICATION_TYPE":"U","MEAN_MOTION":15.40652499,"ECCENTRICITY":0.00021898,"INCLINATION":97.2276,"RA_OF_ASC_NODE":277.8767,"ARG_OF_PERICENTER":130.3351,"MEAN_ANOMALY":229.8087,"EPHEMERIS_TYPE":0,"NORAD_CAT_ID":62631,"ELEMENT_SET_NO":999,"REV_AT_EPOCH":8248,"BSTAR":0.000003392175,"MEAN_MOTION_DOT":5.8e-7,"MEAN_MOTION_DDOT":0},{"OBJECT_NAME":"PELICAN-3","OBJECT_ID":"2025-188A","EPOCH":"2026-07-06T04:55:43.312224","CLASSIFICATION_TYPE":"U","MEAN_MOTION":15.40943128,"ECCENTRICITY":0.00016445,"INCLINATION":97.1977,"RA_OF_ASC_NODE":263.0714,"ARG_OF_PERICENTER":106.4821,"MEAN_ANOMALY":253.6607,"EPHEMERIS_TYPE":0,"NORAD_CAT_ID":65315,"ELEMENT_SET_NO":999,"REV_AT_EPOCH":4824,"BSTAR":0.00020247165,"MEAN_MOTION_DOT":0.00008251,"MEAN_MOTION_DDOT":0},{"OBJECT_NAME":"PELICAN-4","OBJECT_ID":"2025-188B","EPOCH":"2026-07-06T03:47:10.885632","CLASSIFICATION_TYPE":"U","MEAN_MOTION":15.40909435,"ECCENTRICITY":0.00008664,"INCLINATION":97.1992,"RA_OF_ASC_NODE":263.1791,"ARG_OF_PERICENTER":97.5633,"MEAN_ANOMALY":262.5713,"EPHEMERIS_TYPE":0,"NORAD_CAT_ID":65316,"ELEMENT_SET_NO":999,"REV_AT_EPOCH":4823,"BSTAR":0.00020679491,"MEAN_MOTION_DOT":0.00008419,"MEAN_MOTION_DDOT":0},{"OBJECT_NAME":"PELICAN-5","OBJECT_ID":"2025-276B","EPOCH":"2026-07-05T18:27:44.402688","CLASSIFICATION_TYPE":"U","MEAN_MOTION":15.31563118,"ECCENTRICITY":0.00028336,"INCLINATION":97.4126,"RA_OF_ASC_NODE":261.7299,"ARG_OF_PERICENTER":348.1923,"MEAN_ANOMALY":11.9252,"EPHEMERIS_TYPE":0,"NORAD_CAT_ID":66667,"ELEMENT_SET_NO":999,"REV_AT_EPOCH":3336,"BSTAR":0.0002623062,"MEAN_MOTION_DOT":0.00007918,"MEAN_MOTION_DDOT":0},{"OBJECT_NAME":"PELICAN-6","OBJECT_ID":"2025-276AP","EPOCH":"2026-07-05T15:11:50.046432","CLASSIFICATION_TYPE":"U","MEAN_MOTION":15.31045595,"ECCENTRICITY":0.0002437,"INCLINATION":97.3777,"RA_OF_ASC_NODE":261.6654,"ARG_OF_PERICENTER":45.5804,"MEAN_ANOMALY":314.5637,"EPHEMERIS_TYPE":0,"NORAD_CAT_ID":66703,"ELEMENT_SET_NO":999,"REV_AT_EPOCH":3335,"BSTAR":0.0022596328,"MEAN_MOTION_DOT":0.00068237,"MEAN_MOTION_DDOT":0},{"OBJECT_NAME":"PELICAN-7","OBJECT_ID":"2026-100AP","EPOCH":"2026-07-05T16:05:57.211584","CLASSIFICATION_TYPE":"U","MEAN_MOTION":15.23326844,"ECCENTRICITY":0.00034385,"INCLINATION":97.3929,"RA_OF_ASC_NODE":84.2641,"ARG_OF_PERICENTER":99.3305,"MEAN_ANOMALY":260.8321,"EPHEMERIS_TYPE":0,"NORAD_CAT_ID":69017,"ELEMENT_SET_NO":999,"REV_AT_EPOCH":962,"BSTAR":0.00020133796,"MEAN_MOTION_DOT":0.0000471,"MEAN_MOTION_DDOT":0},{"OBJECT_NAME":"PELICAN-9","OBJECT_ID":"2026-100AR","EPOCH":"2026-07-06T03:56:35.085408","CLASSIFICATION_TYPE":"U","MEAN_MOTION":15.21662903,"ECCENTRICITY":0.00028466,"INCLINATION":97.3807,"RA_OF_ASC_NODE":84.6111,"ARG_OF_PERICENTER":7.8261,"MEAN_ANOMALY":352.3019,"EPHEMERIS_TYPE":0,"NORAD_CAT_ID":69019,"ELEMENT_SET_NO":999,"REV_AT_EPOCH":969,"BSTAR":0.00028056432,"MEAN_MOTION_DOT":0.00006275,"MEAN_MOTION_DDOT":0}]}
