PELICAN-1               
1 58296U 23174AS  26186.82737446  .00012070  00000+0  90725-4 0  9997
2 58296  97.3994 288.3370 0001598 147.4668 212.6694 15.72730609149096
PELICAN-2               
1 62631U 25009Y   26187.20562822  .00000058  00000+0  33922-5 0  9991
2 62631  97.2276 277.8767 0002189 130.3351 229.8087 15.40652499 82486
PELICAN-3               
1 65315U 25188A   26187.20536241  .00008251  00000+0  20247-3 0  9994
2 65315  97.1977 263.0714 0001644 106.4821 253.6607 15.40943128 48246
PELICAN-4               
1 65316U 25188B   26187.15776488  .00008419  00000+0  20679-3 0  9993
2 65316  97.1992 263.1791 0000866  97.5633 262.5713 15.40909435 48235
PELICAN-5               
1 66667U 25276B   26186.76926392  .00007918  00000+0  26231-3 0  9991
2 66667  97.4126 261.7299 0002833 348.1923  11.9252 15.31563118 33363
PELICAN-6               
1 66703U 25276AP  26186.63321813  .00068237  00000+0  22596-2 0  9995
2 66703  97.3777 261.6654 0002437  45.5804 314.5637 15.31045595 33357
PELICAN-7               
1 69017U 26100AP  26186.67080106  .00004710  00000+0  20134-3 0  9997
2 69017  97.3929  84.2641 0003438  99.3305 260.8321 15.23326844  9623
PELICAN-9               
1 69019U 26100AR  26187.16429497  .00006275  00000+0  28056-3 0  9993
2 69019  97.3807  84.6111 0002846   7.8261 352.3019 15.21662903  9698
